{
  "type": "FeatureCollection",
  "features": [
    {
      "type": "Feature",
      "id": 1,
      "geometry": {
        "type": "Point",
        "coordinates": [
          -9.14620795021712,
          38.7061150810876
        ]
      },
      "properties": {
        "OBJECTID": 1,
        "COD_SIG": "35",
        "IDTIPO": "9008",
        "NOME": "Cais do Sodré",
        "SITUACAO": "Linha existente",
        "LINHA": "Verde",
        "GlobalID": "8cba81ed-869a-4d12-84bc-9671be2d0b15"
      }
    },
    {
      "type": "Feature",
      "id": 2,
      "geometry": {
        "type": "Point",
        "coordinates": [
          -9.13420238756193,
          38.7071293396142
        ]
      },
      "properties": {
        "OBJECTID": 2,
        "COD_SIG": "34",
        "IDTIPO": "9008",
        "NOME": "Terreiro do Paço",
        "SITUACAO": "Linha existente",
        "LINHA": "Azul",
        "GlobalID": "41bf4119-0152-4b48-ae34-f42bf2496557"
      }
    },
    {
      "type": "Feature",
      "id": 3,
      "geometry": {
        "type": "Point",
        "coordinates": [
          -9.14015060636417,
          38.7105700699041
        ]
      },
      "properties": {
        "OBJECTID": 3,
        "COD_SIG": "33",
        "IDTIPO": "9008",
        "NOME": "Baixa Chiado",
        "SITUACAO": "Linha existente",
        "LINHA": "Azul/Verde",
        "GlobalID": "2fcb5b5a-7ccf-401d-a609-7ad791b823d3"
      }
    },
    {
      "type": "Feature",
      "id": 4,
      "geometry": {
        "type": "Point",
        "coordinates": [
          -9.1223340184811,
          38.7139242126512
        ]
      },
      "properties": {
        "OBJECTID": 4,
        "COD_SIG": "37",
        "IDTIPO": "9008",
        "NOME": "Santa Apolónia",
        "SITUACAO": "Linha existente",
        "LINHA": "Azul",
        "GlobalID": "97af3482-f9cb-4c76-984c-7c10fce66615"
      }
    },
    {
      "type": "Feature",
      "id": 5,
      "geometry": {
        "type": "Point",
        "coordinates": [
          -9.13788558416029,
          38.7140387351334
        ]
      },
      "properties": {
        "OBJECTID": 5,
        "COD_SIG": "43",
        "IDTIPO": "9008",
        "NOME": "Rossio",
        "SITUACAO": "Linha existente",
        "LINHA": "Verde",
        "GlobalID": "3e3b8738-412f-4221-8cba-4969b562f2c1"
      }
    },
    {
      "type": "Feature",
      "id": 6,
      "geometry": {
        "type": "Point",
        "coordinates": [
          -9.14211755877668,
          38.7159224068044
        ]
      },
      "properties": {
        "OBJECTID": 6,
        "COD_SIG": "42",
        "IDTIPO": "9008",
        "NOME": "Restauradores",
        "SITUACAO": "Linha existente",
        "LINHA": "Azul",
        "GlobalID": "34e91bc9-fd6c-4d7e-9a97-ac317a35c01c"
      }
    },
    {
      "type": "Feature",
      "id": 7,
      "geometry": {
        "type": "Point",
        "coordinates": [
          -9.13573782228017,
          38.7177019399986
        ]
      },
      "properties": {
        "OBJECTID": 7,
        "COD_SIG": "36",
        "IDTIPO": "9008",
        "NOME": "Martim Moniz",
        "SITUACAO": "Linha existente",
        "LINHA": "Verde",
        "GlobalID": "18c5c29e-eb0a-4995-84a8-6d49afb5d6b1"
      }
    },
    {
      "type": "Feature",
      "id": 8,
      "geometry": {
        "type": "Point",
        "coordinates": [
          -9.14515188409429,
          38.7194025351094
        ]
      },
      "properties": {
        "OBJECTID": 8,
        "COD_SIG": "32",
        "IDTIPO": "9008",
        "NOME": "Avenida",
        "SITUACAO": "Linha existente",
        "LINHA": "Azul",
        "GlobalID": "110fe1ce-7a73-4e4a-a5dd-3676f87be541"
      }
    },
    {
      "type": "Feature",
      "id": 9,
      "geometry": {
        "type": "Point",
        "coordinates": [
          -9.15468780091093,
          38.7201575166883
        ]
      },
      "properties": {
        "OBJECTID": 9,
        "COD_SIG": "45",
        "IDTIPO": "9008",
        "NOME": "Rato",
        "SITUACAO": "Linha existente",
        "LINHA": "Amarela",
        "GlobalID": "a74892fb-e351-42d5-9e4b-dffd7f075c03"
      }
    },
    {
      "type": "Feature",
      "id": 10,
      "geometry": {
        "type": "Point",
        "coordinates": [
          -9.13518490808126,
          38.7232980404134
        ]
      },
      "properties": {
        "OBJECTID": 10,
        "COD_SIG": "31",
        "IDTIPO": "9008",
        "NOME": "Intendente",
        "SITUACAO": "Linha existente",
        "LINHA": "Verde",
        "GlobalID": "f5ca1769-6fdb-41f2-9394-f4e7ab06d535"
      }
    },
    {
      "type": "Feature",
      "id": 11,
      "geometry": {
        "type": "Point",
        "coordinates": [
          -9.14974636758321,
          38.724638955043
        ]
      },
      "properties": {
        "OBJECTID": 11,
        "COD_SIG": "23",
        "IDTIPO": "9008",
        "NOME": "Marquês de Pombal",
        "SITUACAO": "Linha existente",
        "LINHA": "Azul/Amarela",
        "GlobalID": "ef6c3161-4124-4356-aa4a-f9c801249941"
      }
    },
    {
      "type": "Feature",
      "id": 12,
      "geometry": {
        "type": "Point",
        "coordinates": [
          -9.13480023096576,
          38.7271578246524
        ]
      },
      "properties": {
        "OBJECTID": 12,
        "COD_SIG": "30",
        "IDTIPO": "9008",
        "NOME": "Anjos",
        "SITUACAO": "Linha existente",
        "LINHA": "Verde",
        "GlobalID": "1d4f3c2c-c556-4abb-9c78-1be8cc694393"
      }
    },
    {
      "type": "Feature",
      "id": 13,
      "geometry": {
        "type": "Point",
        "coordinates": [
          -9.15014123306272,
          38.7289458895159
        ]
      },
      "properties": {
        "OBJECTID": 13,
        "COD_SIG": "22",
        "IDTIPO": "9008",
        "NOME": "Parque",
        "SITUACAO": "Linha existente",
        "LINHA": "Azul",
        "GlobalID": "a806dc69-86cc-42cc-8de4-0f5ded4a7cf4"
      }
    },
    {
      "type": "Feature",
      "id": 14,
      "geometry": {
        "type": "Point",
        "coordinates": [
          -9.14688282452403,
          38.7304084282427
        ]
      },
      "properties": {
        "OBJECTID": 14,
        "COD_SIG": "21",
        "IDTIPO": "9008",
        "NOME": "Picoas",
        "SITUACAO": "Linha existente",
        "LINHA": "Amarela",
        "GlobalID": "9d0fc5eb-b967-4a75-a468-5491e5440670"
      }
    },
    {
      "type": "Feature",
      "id": 15,
      "geometry": {
        "type": "Point",
        "coordinates": [
          -9.13423033340514,
          38.7328456373345
        ]
      },
      "properties": {
        "OBJECTID": 15,
        "COD_SIG": "29",
        "IDTIPO": "9008",
        "NOME": "Arroios",
        "SITUACAO": "Linha existente",
        "LINHA": "Verde",
        "GlobalID": "c5ad99f9-cb52-4280-aa88-0b577d2e30d4"
      }
    },
    {
      "type": "Feature",
      "id": 16,
      "geometry": {
        "type": "Point",
        "coordinates": [
          -9.15392287316945,
          38.7343970331662
        ]
      },
      "properties": {
        "OBJECTID": 16,
        "COD_SIG": "19",
        "IDTIPO": "9008",
        "NOME": "São Sebastião",
        "SITUACAO": "Linha existente",
        "LINHA": "Azul/Vermelha",
        "GlobalID": "df2dcd0a-25d4-4e83-90da-abbff6fc67bc"
      }
    },
    {
      "type": "Feature",
      "id": 17,
      "geometry": {
        "type": "Point",
        "coordinates": [
          -9.14528831383823,
          38.7351689051228
        ]
      },
      "properties": {
        "OBJECTID": 17,
        "COD_SIG": "20",
        "IDTIPO": "9008",
        "NOME": "Saldanha",
        "SITUACAO": "Linha existente",
        "LINHA": "Amarela/Vermelha",
        "GlobalID": "cf6b7ed8-da18-4699-a57b-8f1f00138bde"
      }
    },
    {
      "type": "Feature",
      "id": 18,
      "geometry": {
        "type": "Point",
        "coordinates": [
          -9.13380942489798,
          38.7370549729502
        ]
      },
      "properties": {
        "OBJECTID": 18,
        "COD_SIG": "18",
        "IDTIPO": "9008",
        "NOME": "Alameda",
        "SITUACAO": "Linha existente",
        "LINHA": "Verde/Vermelha",
        "GlobalID": "afa7ec87-ac6b-4c59-854a-cd2dd6971306"
      }
    },
    {
      "type": "Feature",
      "id": 19,
      "geometry": {
        "type": "Point",
        "coordinates": [
          -9.15925422094947,
          38.7377491106506
        ]
      },
      "properties": {
        "OBJECTID": 19,
        "COD_SIG": "24",
        "IDTIPO": "9008",
        "NOME": "Praça de Espanha",
        "SITUACAO": "Linha existente",
        "LINHA": "Azul",
        "GlobalID": "d739a90d-56bb-4d07-acbe-003986f7e98c"
      }
    },
    {
      "type": "Feature",
      "id": 20,
      "geometry": {
        "type": "Point",
        "coordinates": [
          -9.1230025209179,
          38.7401729590514
        ]
      },
      "properties": {
        "OBJECTID": 20,
        "COD_SIG": "12",
        "IDTIPO": "9008",
        "NOME": "Olaias",
        "SITUACAO": "Linha existente",
        "LINHA": "Vermelha",
        "GlobalID": "fea2151f-16ad-4e8e-a3b0-2e72e342a139"
      }
    },
    {
      "type": "Feature",
      "id": 21,
      "geometry": {
        "type": "Point",
        "coordinates": [
          -9.14668409480334,
          38.740929476453
        ]
      },
      "properties": {
        "OBJECTID": 21,
        "COD_SIG": "17",
        "IDTIPO": "9008",
        "NOME": "Campo Pequeno",
        "SITUACAO": "Linha existente",
        "LINHA": "Amarela",
        "GlobalID": "bfd65588-93cc-47c8-a196-dbc73f773a19"
      }
    },
    {
      "type": "Feature",
      "id": 22,
      "geometry": {
        "type": "Point",
        "coordinates": [
          -9.16866629861376,
          38.741639206018
        ]
      },
      "properties": {
        "OBJECTID": 22,
        "COD_SIG": "25",
        "IDTIPO": "9008",
        "NOME": "Jardim Zoológico",
        "SITUACAO": "Linha existente",
        "LINHA": "Azul",
        "GlobalID": "16a924f9-9b1a-4037-be3b-48d3f2eedb44"
      }
    },
    {
      "type": "Feature",
      "id": 23,
      "geometry": {
        "type": "Point",
        "coordinates": [
          -9.13345548142175,
          38.7424454415358
        ]
      },
      "properties": {
        "OBJECTID": 23,
        "COD_SIG": "13",
        "IDTIPO": "9008",
        "NOME": "Areeiro",
        "SITUACAO": "Linha existente",
        "LINHA": "Verde",
        "GlobalID": "fb078c52-fcb6-4150-b51f-918bb1994558"
      }
    },
    {
      "type": "Feature",
      "id": 24,
      "geometry": {
        "type": "Point",
        "coordinates": [
          -9.1482146104718,
          38.7471334577605
        ]
      },
      "properties": {
        "OBJECTID": 24,
        "COD_SIG": "16",
        "IDTIPO": "9008",
        "NOME": "Entre Campos",
        "SITUACAO": "Linha existente",
        "LINHA": "Amarela",
        "GlobalID": "ddd3f381-a7ed-4bd7-850f-44af5c91fff2"
      }
    },
    {
      "type": "Feature",
      "id": 25,
      "geometry": {
        "type": "Point",
        "coordinates": [
          -9.11762369396806,
          38.7477357859286
        ]
      },
      "properties": {
        "OBJECTID": 25,
        "COD_SIG": "11",
        "IDTIPO": "9008",
        "NOME": "Bela Vista",
        "SITUACAO": "Linha existente",
        "LINHA": "Vermelha",
        "GlobalID": "56b2073f-83a7-46be-894a-b6746bce5473"
      }
    },
    {
      "type": "Feature",
      "id": 26,
      "geometry": {
        "type": "Point",
        "coordinates": [
          -9.14134526152344,
          38.7482228024879
        ]
      },
      "properties": {
        "OBJECTID": 26,
        "COD_SIG": "14",
        "IDTIPO": "9008",
        "NOME": "Roma",
        "SITUACAO": "Linha existente",
        "LINHA": "Verde",
        "GlobalID": "9c5a079c-9587-465f-80a1-efafbccc5b74"
      }
    },
    {
      "type": "Feature",
      "id": 27,
      "geometry": {
        "type": "Point",
        "coordinates": [
          -9.17258176533351,
          38.7487507528713
        ]
      },
      "properties": {
        "OBJECTID": 27,
        "COD_SIG": "26",
        "IDTIPO": "9008",
        "NOME": "Laranjeiras",
        "SITUACAO": "Linha existente",
        "LINHA": "Azul",
        "GlobalID": "7c1e8dd4-05d5-43b1-820a-a102573fa066"
      }
    },
    {
      "type": "Feature",
      "id": 28,
      "geometry": {
        "type": "Point",
        "coordinates": [
          -9.18006654807824,
          38.7499445388444
        ]
      },
      "properties": {
        "OBJECTID": 28,
        "COD_SIG": "28",
        "IDTIPO": "9008",
        "NOME": "Alto dos Moinhos",
        "SITUACAO": "Linha existente",
        "LINHA": "Azul",
        "GlobalID": "01a80d11-d2a9-4538-a205-765b1f4f0b5b"
      }
    },
    {
      "type": "Feature",
      "id": 29,
      "geometry": {
        "type": "Point",
        "coordinates": [
          -9.15912398203189,
          38.7515984207662
        ]
      },
      "properties": {
        "OBJECTID": 29,
        "COD_SIG": "27",
        "IDTIPO": "9008",
        "NOME": "Cidade Universitária",
        "SITUACAO": "Linha existente",
        "LINHA": "Amarela",
        "GlobalID": "b99523ea-9154-45d3-a7d9-eef839e646d1"
      }
    },
    {
      "type": "Feature",
      "id": 30,
      "geometry": {
        "type": "Point",
        "coordinates": [
          -9.22388329579027,
          38.7522712870587
        ]
      },
      "properties": {
        "OBJECTID": 30,
        "COD_SIG": "48",
        "IDTIPO": "9008",
        "NOME": "Reboleira",
        "SITUACAO": "Linha existente",
        "LINHA": "Azul",
        "GlobalID": "7e716fa7-5988-47f5-b06c-5e9a2139d112"
      }
    },
    {
      "type": "Feature",
      "id": 31,
      "geometry": {
        "type": "Point",
        "coordinates": [
          -9.14400029637591,
          38.7531730686722
        ]
      },
      "properties": {
        "OBJECTID": 31,
        "COD_SIG": "15",
        "IDTIPO": "9008",
        "NOME": "Alvalade",
        "SITUACAO": "Linha existente",
        "LINHA": "Verde",
        "GlobalID": "eadf7999-7c13-4d07-b901-7a31b5f6d0ad"
      }
    },
    {
      "type": "Feature",
      "id": 32,
      "geometry": {
        "type": "Point",
        "coordinates": [
          -9.18930499007435,
          38.753441421465
        ]
      },
      "properties": {
        "OBJECTID": 32,
        "COD_SIG": "39",
        "IDTIPO": "9008",
        "NOME": "Colégio Militar",
        "SITUACAO": "Linha existente",
        "LINHA": "Azul",
        "GlobalID": "ece266ec-3772-4b72-92fb-3d4ef837fe04"
      }
    },
    {
      "type": "Feature",
      "id": 33,
      "geometry": {
        "type": "Point",
        "coordinates": [
          -9.11393068105765,
          38.7549149532346
        ]
      },
      "properties": {
        "OBJECTID": 33,
        "COD_SIG": "10",
        "IDTIPO": "9008",
        "NOME": "Chelas",
        "SITUACAO": "Linha existente",
        "LINHA": "Vermelha",
        "GlobalID": "c0238867-659c-4deb-a7ed-466b0d5a9402"
      }
    },
    {
      "type": "Feature",
      "id": 34,
      "geometry": {
        "type": "Point",
        "coordinates": [
          -9.21790161747948,
          38.7587158590108
        ]
      },
      "properties": {
        "OBJECTID": 34,
        "COD_SIG": "41",
        "IDTIPO": "9008",
        "NOME": "Amadora Este",
        "SITUACAO": "Linha existente",
        "LINHA": "Azul",
        "GlobalID": "f8e70f34-c38a-4f53-b35f-c89a50d22c2f"
      }
    },
    {
      "type": "Feature",
      "id": 35,
      "geometry": {
        "type": "Point",
        "coordinates": [
          -9.19262713345253,
          38.759168109099
        ]
      },
      "properties": {
        "OBJECTID": 35,
        "COD_SIG": "44",
        "IDTIPO": "9008",
        "NOME": "Carnide",
        "SITUACAO": "Linha existente",
        "LINHA": "Azul",
        "GlobalID": "3ec567c5-67c0-46fe-80cb-b59b48100e28"
      }
    },
    {
      "type": "Feature",
      "id": 36,
      "geometry": {
        "type": "Point",
        "coordinates": [
          -9.1578896614592,
          38.7602165259205
        ]
      },
      "properties": {
        "OBJECTID": 36,
        "COD_SIG": "3",
        "IDTIPO": "9008",
        "NOME": "Campo Grande",
        "SITUACAO": "Linha existente",
        "LINHA": "Amarela/Verde",
        "GlobalID": "c360446d-7627-4550-a792-4dd5ea99daf5"
      }
    },
    {
      "type": "Feature",
      "id": 37,
      "geometry": {
        "type": "Point",
        "coordinates": [
          -9.16644430726784,
          38.7599634337851
        ]
      },
      "properties": {
        "OBJECTID": 37,
        "COD_SIG": "4",
        "IDTIPO": "9008",
        "NOME": "Telheiras",
        "SITUACAO": "Linha existente",
        "LINHA": "Verde",
        "GlobalID": "122c391a-b808-4afa-afa0-bdd50fb53ccb"
      }
    },
    {
      "type": "Feature",
      "id": 38,
      "geometry": {
        "type": "Point",
        "coordinates": [
          -9.11176892689733,
          38.7609221401764
        ]
      },
      "properties": {
        "OBJECTID": 38,
        "COD_SIG": "9",
        "IDTIPO": "9008",
        "NOME": "Olivais",
        "SITUACAO": "Linha existente",
        "LINHA": "Vermelha",
        "GlobalID": "c0e8cf70-fb9f-432a-b2ab-1cd77260dd6c"
      }
    },
    {
      "type": "Feature",
      "id": 39,
      "geometry": {
        "type": "Point",
        "coordinates": [
          -9.20447747862651,
          38.7605071106029
        ]
      },
      "properties": {
        "OBJECTID": 39,
        "COD_SIG": "40",
        "IDTIPO": "9008",
        "NOME": "Alfornelos",
        "SITUACAO": "Linha existente",
        "LINHA": "Azul",
        "GlobalID": "4bf42402-6aa3-41bf-8edc-aa25b399664c"
      }
    },
    {
      "type": "Feature",
      "id": 40,
      "geometry": {
        "type": "Point",
        "coordinates": [
          -9.19686363917219,
          38.7622502213567
        ]
      },
      "properties": {
        "OBJECTID": 40,
        "COD_SIG": "38",
        "IDTIPO": "9008",
        "NOME": "Pontinha",
        "SITUACAO": "Linha existente",
        "LINHA": "Azul",
        "GlobalID": "d7e39ce9-3756-4992-b117-6f30c6b6e81a"
      }
    },
    {
      "type": "Feature",
      "id": 41,
      "geometry": {
        "type": "Point",
        "coordinates": [
          -9.10511478609739,
          38.7629641453917
        ]
      },
      "properties": {
        "OBJECTID": 41,
        "COD_SIG": "8",
        "IDTIPO": "9008",
        "NOME": "Cabo Ruivo",
        "SITUACAO": "Linha existente",
        "LINHA": "Vermelha",
        "GlobalID": "f557f3dd-2666-42c1-b976-baeb124ed473"
      }
    },
    {
      "type": "Feature",
      "id": 42,
      "geometry": {
        "type": "Point",
        "coordinates": [
          -9.15555480778863,
          38.7674892706787
        ]
      },
      "properties": {
        "OBJECTID": 42,
        "COD_SIG": "2",
        "IDTIPO": "9008",
        "NOME": "Quinta das Conchas",
        "SITUACAO": "Linha existente",
        "LINHA": "Amarela",
        "GlobalID": "38daaae5-a63a-42ff-a0ac-de5f5e547383"
      }
    },
    {
      "type": "Feature",
      "id": 43,
      "geometry": {
        "type": "Point",
        "coordinates": [
          -9.0998135518355,
          38.7679599444634
        ]
      },
      "properties": {
        "OBJECTID": 43,
        "COD_SIG": "7",
        "IDTIPO": "9008",
        "NOME": "Oriente",
        "SITUACAO": "Linha existente",
        "LINHA": "Vermelha",
        "GlobalID": "c7d190cf-9f82-4307-9aa6-bb363c6e8b46"
      }
    },
    {
      "type": "Feature",
      "id": 44,
      "geometry": {
        "type": "Point",
        "coordinates": [
          -9.12820311123166,
          38.7683794008583
        ]
      },
      "properties": {
        "OBJECTID": 44,
        "COD_SIG": "49",
        "IDTIPO": "9008",
        "NOME": "Aeroporto",
        "SITUACAO": "Linha existente",
        "LINHA": "Vermelha",
        "GlobalID": "4b1c63ee-f848-400b-9e00-e2c328b4185c"
      }
    },
    {
      "type": "Feature",
      "id": 45,
      "geometry": {
        "type": "Point",
        "coordinates": [
          -9.159288760681,
          38.7732843374556
        ]
      },
      "properties": {
        "OBJECTID": 45,
        "COD_SIG": "46",
        "IDTIPO": "9008",
        "NOME": "Lumiar",
        "SITUACAO": "Linha existente",
        "LINHA": "Amarela",
        "GlobalID": "a7f525a1-d171-446c-b4c8-3de664c586d0"
      }
    },
    {
      "type": "Feature",
      "id": 46,
      "geometry": {
        "type": "Point",
        "coordinates": [
          -9.11537495212044,
          38.7750679264104
        ]
      },
      "properties": {
        "OBJECTID": 46,
        "COD_SIG": "50",
        "IDTIPO": "9008",
        "NOME": "Encarnação",
        "SITUACAO": "Linha existente",
        "LINHA": "Vermelha",
        "GlobalID": "212c6194-349b-49c3-b9e5-e39692a93bec"
      }
    },
    {
      "type": "Feature",
      "id": 47,
      "geometry": {
        "type": "Point",
        "coordinates": [
          -9.10300158883893,
          38.7749214790169
        ]
      },
      "properties": {
        "OBJECTID": 47,
        "COD_SIG": "47",
        "IDTIPO": "9008",
        "NOME": "Moscavide",
        "SITUACAO": "Linha existente",
        "LINHA": "Vermelha",
        "GlobalID": "d799079b-85ae-48fd-af5b-8865b1812246"
      }
    },
    {
      "type": "Feature",
      "id": 48,
      "geometry": {
        "type": "Point",
        "coordinates": [
          -9.15952318236053,
          38.7795364143671
        ]
      },
      "properties": {
        "OBJECTID": 48,
        "COD_SIG": "1",
        "IDTIPO": "9008",
        "NOME": "Ameixoeira",
        "SITUACAO": "Linha existente",
        "LINHA": "Amarela",
        "GlobalID": "c5093c6d-7e40-4111-bb14-2bdca154af6e"
      }
    },
    {
      "type": "Feature",
      "id": 49,
      "geometry": {
        "type": "Point",
        "coordinates": [
          -9.17189570290375,
          38.785776294755
        ]
      },
      "properties": {
        "OBJECTID": 49,
        "COD_SIG": "6",
        "IDTIPO": "9008",
        "NOME": "Senhor Roubado",
        "SITUACAO": "Linha existente",
        "LINHA": "Amarela",
        "GlobalID": "44e5e3b1-01c3-4091-ba71-c5953386a8cc"
      }
    },
    {
      "type": "Feature",
      "id": 50,
      "geometry": {
        "type": "Point",
        "coordinates": [
          -9.17319799147843,
          38.7935139056005
        ]
      },
      "properties": {
        "OBJECTID": 50,
        "COD_SIG": "5",
        "IDTIPO": "9008",
        "NOME": "Odivelas",
        "SITUACAO": "Linha existente",
        "LINHA": "Amarela",
        "GlobalID": "d14404ae-4c18-40ed-bed3-fc4930d6bd30"
      }
    }
  ]
}